GSAT0101 (PRN E11)      
1 37846U 11060A   21123.22763522 -.00000104  00000-0  00000+0 0  9999
2 37846  56.8149  32.5170 0004132   4.2794 355.7346  1.70475218 59357
GSAT0102 (PRN E12)      
1 37847U 11060B   21123.44989604 -.00000105  00000-0  00000-0 0  9997
2 37847  56.8160  32.5102 0004860 338.5848 204.0870  1.70475423 59230
GSAT0103 (PRN E19)      
1 38857U 12055A   21124.44220925  .00000050  00000-0  00000-0 0  9997
2 38857  55.0353 152.9470 0005154 267.5320  92.4658  1.70473753 53135
GSAT0104 (PRN E20)      
1 38858U 12055B   21123.23533295  .00000043  00000-0  00000-0 0  9993
2 38858  55.0359 152.9818 0013924 212.2685 147.7007  1.70151659 53122
GSAT0201 (PRN E18)      
1 40128U 14050A   21124.10777543 -.00000106  00000-0  00000-0 0  9997
2 40128  50.4911 348.5889 1650723 109.8559 268.6569  1.85518818 43625
GSAT0202 (PRN E14)      
1 40129U 14050B   21123.83129160 -.00000105  00000-0  00000-0 0  9992
2 40129  50.5225 347.6475 1648024 110.6555 267.7633  1.85519398 45788
GSAT0203 (PRN E26)      
1 40544U 15017A   21122.42252084 -.00000101  00000-0  00000-0 0  9999
2 40544  56.6090  32.6286 0002857 286.6050  73.3749  1.70474396 37296
GSAT0204 (PRN E22)      
1 40545U 15017B   21110.99979167 -.00000070  00000-0  00000+0 0  9991
2 40545  56.6120  32.9522 0028017 217.3514 187.7046  1.72102947 37752
GSAT0205 (PRN E24)      
1 40889U 15045A   21123.61751496 -.00000029  00000-0  00000-0 0  9994
2 40889  55.9093 273.2753 0004573  26.3635 333.6223  1.70475445 35125
GSAT0206 (PRN E30)      
1 40890U 15045B   21123.83700258 -.00000031  00000-0  00000-0 0  9993
2 40890  55.9088 273.2654 0002728  23.5733 336.4017  1.70475566 35158
GSAT0209 (PRN E09)      
1 41174U 15079A   21122.25146950  .00000041  00000-0  00000-0 0  9994
2 41174  55.0503 152.7075 0005570 302.3506  57.6504  1.70473551 32869
GSAT0208 (PRN E08)      
1 41175U 15079B   21124.23090443  .00000049  00000-0  00000-0 0  9998
2 41175  55.0492 152.6520 0004848 301.1649  58.8435  1.70473650 33310
GSAT0211 (PRN E02)      
1 41549U 16030A   21124.35192753 -.00000034  00000-0  00000-0 0  9996
2 41549  56.0524 273.1411 0002925 341.9579  17.9934  1.70475159 30793
GSAT0210 (PRN E01)      
1 41550U 16030B   21124.05817415 -.00000032  00000-0  00000-0 0  9992
2 41550  56.0520 273.1508 0001672 299.9802  59.9654  1.70475217 30786
GSAT0207 (PRN E07)      
1 41859U 16069A   21124.30388088  .00000048  00000-0  00000-0 0  9999
2 41859  54.7097 152.9336 0005714 291.2385  68.7569  1.70473521 27524
GSAT0212 (PRN E03)      
1 41860U 16069B   21123.57071984  .00000044  00000-0  00000-0 0  9999
2 41860  54.7070 152.9523 0004359 307.4313  52.5839  1.70473519 27764
GSAT0213 (PRN E04)      
1 41861U 16069C   21122.76323643  .00000041  00000-0  00000-0 0  9999
2 41861  54.7090 152.9791 0005219 273.8620  86.1329  1.70473532 27613
GSAT0214 (PRN E05)      
1 41862U 16069D   21124.08343238  .00000047  00000-0  00000-0 0  9995
2 41862  54.7083 152.9376 0004364 277.9868  82.0195  1.70473606 27768
GSAT0215 (PRN E21)      
1 43055U 17079A   21123.40097251 -.00000027  00000-0  00000-0 0  9998
2 43055  56.0274 273.0058 0001028 296.8008  63.1513  1.70474368 21093
GSAT0216 (PRN E25)      
1 43056U 17079B   21124.28008277 -.00000033  00000-0  00000-0 0  9993
2 43056  56.0274 272.9815 0002808 284.5004  75.4303  1.70474539 21127
GSAT0217 (PRN E27)      
1 43057U 17079C   21123.91362471 -.00000031  00000-0  00000+0 0  9999
2 43057  56.0264 272.9917 0002579 305.5318  54.4065  1.70474439 21106
GSAT0218 (PRN E31)      
1 43058U 17079D   21123.54704428 -.00000028  00000-0  00000-0 0  9998
2 43058  56.0267 272.9993 0003208 277.3781  82.5479  1.70474441 21120
GSAT0221 (PRN E15)      
1 43564U 18060A   21124.03219536 -.00000106  00000-0  00000-0 0  9994
2 43564  56.9949  32.2949 0003958 300.3132  59.6576  1.70475419 17286
GSAT0222 (PRN E33)      
1 43565U 18060B   21123.07886844 -.00000103  00000-0  00000-0 0  9997
2 43565  56.9966  32.3208 0003992 310.1219  49.8542  1.70475405 17311
GSAT0219 (PRN E36)      
1 43566U 18060C   21123.88603263 -.00000106  00000-0  00000-0 0  9992
2 43566  56.9973  32.3006 0003688 313.5900  46.3894  1.70475450 17303
GSAT0220 (PRN E13)      
1 43567U 18060D   21124.10584774 -.00000107  00000-0  00000-0 0  9995
2 43567  56.9974  32.2942 0003547 308.5682  51.4098  1.70475398 17290
